[{"OBJECT_NAME":"CSTP 1.2 (STC 1.2)","OBJECT_ID":"2023-091W","EPOCH":"2026-03-09T23:12:27.821952","MEAN_MOTION":15.2718076,"ECCENTRICITY":0.00204388,"INCLINATION":97.5258,"RA_OF_ASC_NODE":134.3262,"ARG_OF_PERICENTER":84.9592,"MEAN_ANOMALY":275.3979,"EPHEMERIS_TYPE":0,"CLASSIFICATION_TYPE":"U","NORAD_CAT_ID":57186,"ELEMENT_SET_NO":999,"REV_AT_EPOCH":14930,"BSTAR":0.00043035718,"MEAN_MOTION_DOT":0.00011466,"MEAN_MOTION_DDOT":0},{"OBJECT_NAME":"STARLINK-31640","OBJECT_ID":"2024-090U","EPOCH":"2026-03-09T07:46:26.896224","MEAN_MOTION":15.2757173,"ECCENTRICITY":0.00018596,"INCLINATION":42.9976,"RA_OF_ASC_NODE":185.5973,"ARG_OF_PERICENTER":191.7433,"MEAN_ANOMALY":168.3375,"EPHEMERIS_TYPE":0,"CLASSIFICATION_TYPE":"U","NORAD_CAT_ID":59748,"ELEMENT_SET_NO":999,"REV_AT_EPOCH":10338,"BSTAR":-2.9843135e-5,"MEAN_MOTION_DOT":-1.083e-5,"MEAN_MOTION_DDOT":0}]
